0 FENGYUN 1C DEB
1 31672U 99025CCE 13281.91190617  .00001327  00000-0  58520-3 0  3319
2 31672 098.9567 334.8520 0168965 285.7651 072.5065 14.17811708335104
0 FENGYUN 1C DEB
1 31672U 99025CCE 13284.38186001  .00001357  00000-0  59661-3 0  3326
2 31672 098.9561 337.3426 0170248 278.8691 079.3539 14.17819617335451
0 FENGYUN 1C DEB
1 31672U 99025CCE 13285.36983405  .00001384  00000-0  60695-3 0  3338
2 31672 098.9554 338.3362 0171115 276.1992 081.9965 14.17823396335598
0 FENGYUN 1C DEB
1 31672U 99025CCE 13289.95686140  .00001466  00000-0  64242-3 0  3347
2 31672 098.9525 342.9612 0170250 262.9516 095.2801 14.17839102336241
0 FENGYUN 1C DEB
1 31672U 99025CCE 13291.36823851  .00001603  00000-0  70284-3 0  3354
2 31672 098.9553 344.3927 0168036 258.4531 099.9287 14.17848556336447
0 FENGYUN 1C DEB
1 31672U 99025CCE 13291.93276039  .00001627  00000-0  71560-3 0  3362
2 31672 098.9575 344.9658 0166120 256.1530 102.1439 14.17851337336520
0 FENGYUN 1C DEB
1 31672U 99025CCE 13293.90868230  .00001722  00000-0  75495-3 0  3379
2 31672 098.9564 346.9537 0166779 249.8326 108.5801 14.17861150336806
0 FENGYUN 1C DEB
1 31672U 99025CCE 13295.39060282  .00001919  00000-0  83516-3 0  3387
2 31672 098.9521 348.4386 0169350 248.2216 110.1616 14.17871824337013
